DUPLEX                  
1 66906U 98067XS  26082.13188610  .00036468  00000+0  49886-3 0  9997
2 66906  51.6301   2.1718 0003129 170.5661 189.5390 15.57057045 17221
ISS OBJECT XT           
1 66907U 98067XT  26082.12744157  .00252347  00000+0  16874-2 0  9997
2 66907  51.6254 356.8640 0005369 166.1185 193.9962 15.73983745 17296
ISS OBJECT XU           
1 66908U 98067XU  26082.12443542  .00262204  00000+0  17376-2 0  9993
2 66908  51.6246 356.8387 0005602 166.2607 193.8545 15.74162534 17298
SILVERSAT               
1 66909U 98067XV  26082.47529509  .00274859  00000+0  14886-2 0  9992
2 66909  51.6224 353.9233 0006210 174.2086 185.8987 15.78703515 17362
ISS OBJECT XW           
1 66910U 98067XW  26082.12988061  .00223399  00000+0  15746-2 0  9997
2 66910  51.6244 356.8723 0005781 166.1394 193.9764 15.72839352 17294
ISS OBJECT XX           
1 66911U 98067XX  26082.12127221  .00504349  00000+0  21092-2 0  9999
2 66911  51.6200 354.5306 0007749 174.8625 185.2459 15.83698112 17315
ISS OBJECT XY           
1 66912U 98067XY  26082.18264591  .00117705  00000+0  11004-2 0  9996
2 66912  51.6273 358.7506 0004031 168.1265 191.9827 15.66386367 17265
KNACKSAT-2              
1 67683U 98067XZ  26082.50358589  .00033155  00000+0  52676-3 0  9996
2 67683  51.6321   3.1544 0009815 235.6966 124.3095 15.52967670  6937
CORAL                   
1 67684U 98067YA  26082.19230312  .00096510  00000+0  13187-2 0  9992
2 67684  51.6310   4.0749 0012327 223.6063 136.3956 15.56579310  6898
GXIBA-1                 
1 67685U 98067YB  26081.27305036  .00038654  00000+0  60489-3 0  9990
2 67685  51.6327   9.1857 0011628 227.8880 132.1122 15.53290377  6742
UITMSAT-2               
1 67686U 98067YC  26082.03372233  .00071513  00000+0  10723-2 0  9995
2 67686  51.6323   5.2680 0008734 200.8114 159.2523 15.54231876  6863
HMU-SAT2                
1 67687U 98067YD  26082.49942877  .00036242  00000+0  57019-3 0  9993
2 67687  51.6330   3.1286 0008334 205.8311 154.2264 15.53210479  6852
LEOPARD                 
1 67688U 98067YE  26082.48907409  .00042029  00000+0  64306-3 0  9992
2 67688  51.6326   3.0592 0008530 203.2990 156.7615 15.53908478  6850
CREW DRAGON 12          
1 67796U 26031A   26082.45371250  .00014788  00000+0  28089-3 0  9999
2 67796  51.6345   4.3184 0006177 224.0290 136.0206 15.48489537558393
PROGRESS-MS 33          
1 68319U 26058A   26082.05109224  .00200487  28256-4  35870-3 0  9993
2 68319  51.6358   6.8873 0011621 152.2903 207.8729 16.01170532    69
SL-4 R/B                
1 68320U 26058B   26082.83997676  .06757869  12382-4  58261-3 0  9996
2 68320  51.6493   2.4646 0012028  80.2957 279.9427 16.38279989   221
